0 AIM
1 31304U 07015A   13282.78096612  .00005206  00000-0  43407-3 0  1614
2 31304 097.8733 039.6180 0011151 032.3854 095.6470 14.99000441352116
0 AIM
1 31304U 07015A   13283.84654318  .00005893  00000-0  49059-3 0  1627
2 31304 097.8731 040.6943 0011061 028.5962 086.1676 14.99009586352279
0 AIM
1 31304U 07015A   13286.11070358  .00004383  00000-0  36611-3 0  1641
2 31304 097.8731 042.9811 0010864 020.2811 065.3800 14.99027504352616
0 AIM
1 31304U 07015A   13287.43763444  .00004609  00000-0  38457-3 0  1654
2 31304 097.8733 044.3214 0010754 015.3008 026.7296 14.99036992352815
0 AIM
1 31304U 07015A   13288.78784082  .00005575  00000-0  46385-3 0  1667
2 31304 097.8736 045.6854 0010669 010.0159 113.9751 14.99053892353012
0 AIM
1 31304U 07015A   13289.78899846  .00006500  00000-0  53984-3 0  1676
2 31304 097.8737 046.6969 0010606 006.0347 117.4687 14.99063227353162
0 AIM
1 31304U 07015A   13291.11081622  .00005343  00000-0  44459-3 0  1683
2 31304 097.8736 048.0321 0010515 000.8373 051.6377 14.99075592353364
0 AIM
1 31304U 07015A   13292.11189700  .00004714  00000-0  39280-3 0  1698
2 31304 097.8734 049.0432 0010489 356.6753 054.9764 14.99084253353517
0 AIM
1 31304U 07015A   13293.11302312  .00004964  00000-0  41321-3 0  1703
2 31304 097.8731 050.0545 0010430 352.8042 058.3020 14.99092784353663
0 AIM
1 31304U 07015A   13294.11912986  .00005862  00000-0  48694-3 0  1717
2 31304 097.8728 051.0710 0010383 348.8554 088.5999 14.99101376353819
0 AIM
1 31304U 07015A   13295.12032140  .00006037  00000-0  50116-3 0  1722
2 31304 097.8724 052.0824 0010337 344.9116 092.4155 14.99109842353962
0 AIM
1 31304U 07015A   13296.12151859  .00006425  00000-0  53288-3 0  1737
2 31304 097.8720 053.0937 0010330 340.7748 096.4856 14.99120932354115
